[{"OBJECT_NAME":"ONEWEB-0699","OBJECT_ID":"2024-188M","EPOCH":"2026-05-29T17:41:16.050048","MEAN_MOTION":13.10376947,"ECCENTRICITY":0.0001137,"INCLINATION":87.8854,"RA_OF_ASC_NODE":39.9395,"ARG_OF_PERICENTER":86.0447,"MEAN_ANOMALY":274.081,"EPHEMERIS_TYPE":0,"CLASSIFICATION_TYPE":"U","NORAD_CAT_ID":61605,"ELEMENT_SET_NO":999,"REV_AT_EPOCH":8089,"BSTAR":-0.00061373,"MEAN_MOTION_DOT":-2.02e-06,"MEAN_MOTION_DDOT":0.0},{"OBJECT_NAME":"ONEWEB-0700","OBJECT_ID":"2024-188N","EPOCH":"2026-05-30T02:53:25.838016","MEAN_MOTION":13.10377042,"ECCENTRICITY":0.0001386,"INCLINATION":87.8873,"RA_OF_ASC_NODE":39.7691,"ARG_OF_PERICENTER":99.9996,"MEAN_ANOMALY":260.1288,"EPHEMERIS_TYPE":0,"CLASSIFICATION_TYPE":"U","NORAD_CAT_ID":61606,"ELEMENT_SET_NO":999,"REV_AT_EPOCH":8093,"BSTAR":-0.00022516,"MEAN_MOTION_DOT":-6.6e-07,"MEAN_MOTION_DDOT":0.0},{"OBJECT_NAME":"ONEWEB-0701","OBJECT_ID":"2024-188P","EPOCH":"2026-05-30T03:17:21.424128","MEAN_MOTION":13.10375881,"ECCENTRICITY":9.92e-05,"INCLINATION":87.8859,"RA_OF_ASC_NODE":39.8585,"ARG_OF_PERICENTER":91.9131,"MEAN_ANOMALY":268.211,"EPHEMERIS_TYPE":0,"CLASSIFICATION_TYPE":"U","NORAD_CAT_ID":61607,"ELEMENT_SET_NO":999,"REV_AT_EPOCH":8094,"BSTAR":0.0018489000000000001,"MEAN_MOTION_DOT":6.58e-06,"MEAN_MOTION_DDOT":0.0},{"OBJECT_NAME":"ONEWEB-0702","OBJECT_ID":"2024-188Q","EPOCH":"2026-05-30T02:09:19.533024","MEAN_MOTION":13.11418678,"ECCENTRICITY":0.0001191,"INCLINATION":87.8925,"RA_OF_ASC_NODE":24.585,"ARG_OF_PERICENTER":116.2802,"MEAN_ANOMALY":243.8449,"EPHEMERIS_TYPE":0,"CLASSIFICATION_TYPE":"U","NORAD_CAT_ID":61608,"ELEMENT_SET_NO":999,"REV_AT_EPOCH":8211,"BSTAR":0.0011011999999999999,"MEAN_MOTION_DOT":4.03e-06,"MEAN_MOTION_DDOT":0.0},{"OBJECT_NAME":"ONEWEB-0704","OBJECT_ID":"2024-188R","EPOCH":"2026-05-30T03:00:37.220256","MEAN_MOTION":13.10377613,"ECCENTRICITY":0.0001369,"INCLINATION":87.8869,"RA_OF_ASC_NODE":39.8491,"ARG_OF_PERICENTER":117.9666,"MEAN_ANOMALY":242.16,"EPHEMERIS_TYPE":0,"CLASSIFICATION_TYPE":"U","NORAD_CAT_ID":61609,"ELEMENT_SET_NO":999,"REV_AT_EPOCH":8092,"BSTAR":0.00036177,"MEAN_MOTION_DOT":1.39e-06,"MEAN_MOTION_DDOT":0.0},{"OBJECT_NAME":"ONEWEB-0705","OBJECT_ID":"2024-188S","EPOCH":"2026-05-29T16:08:02.995296","MEAN_MOTION":13.10377344,"ECCENTRICITY":0.0002211,"INCLINATION":87.8862,"RA_OF_ASC_NODE":39.945,"ARG_OF_PERICENTER":109.9888,"MEAN_ANOMALY":250.1478,"EPHEMERIS_TYPE":0,"CLASSIFICATION_TYPE":"U","NORAD_CAT_ID":61610,"ELEMENT_SET_NO":999,"REV_AT_EPOCH":7303,"BSTAR":0.0011074000000000001,"MEAN_MOTION_DOT":3.99e-06,"MEAN_MOTION_DDOT":0.0},{"OBJECT_NAME":"ONEWEB-0706","OBJECT_ID":"2024-188T","EPOCH":"2026-05-30T02:46:15.192768","MEAN_MOTION":13.10376403,"ECCENTRICITY":0.0001553,"INCLINATION":87.8861,"RA_OF_ASC_NODE":39.863,"ARG_OF_PERICENTER":100.6292,"MEAN_ANOMALY":259.501,"EPHEMERIS_TYPE":0,"CLASSIFICATION_TYPE":"U","NORAD_CAT_ID":61611,"ELEMENT_SET_NO":999,"REV_AT_EPOCH":8101,"BSTAR":-0.0011384,"MEAN_MOTION_DOT":-3.85e-06,"MEAN_MOTION_DDOT":0.0},{"OBJECT_NAME":"ONEWEB-0707","OBJECT_ID":"2024-188U","EPOCH":"2026-05-30T02:55:49.378656","MEAN_MOTION":13.10377695,"ECCENTRICITY":0.0001496,"INCLINATION":87.8862,"RA_OF_ASC_NODE":39.8555,"ARG_OF_PERICENTER":98.054,"MEAN_ANOMALY":262.0757,"EPHEMERIS_TYPE":0,"CLASSIFICATION_TYPE":"U","NORAD_CAT_ID":61612,"ELEMENT_SET_NO":999,"REV_AT_EPOCH":8095,"BSTAR":-8.966e-05,"MEAN_MOTION_DOT":-1.9e-07,"MEAN_MOTION_DDOT":0.0},{"OBJECT_NAME":"ONEWEB-0708","OBJECT_ID":"2024-188V","EPOCH":"2026-05-30T03:22:08.603040","MEAN_MOTION":13.10375033,"ECCENTRICITY":0.0002202,"INCLINATION":87.8854,"RA_OF_ASC_NODE":39.8709,"ARG_OF_PERICENTER":92.0052,"MEAN_ANOMALY":268.1328,"EPHEMERIS_TYPE":0,"CLASSIFICATION_TYPE":"U","NORAD_CAT_ID":61613,"ELEMENT_SET_NO":999,"REV_AT_EPOCH":8093,"BSTAR":0.0019217000000000001,"MEAN_MOTION_DOT":6.84e-06,"MEAN_MOTION_DDOT":0.0}]