ONEWEB-0699             
1 61605U 24188M   26149.73699132 -.00000202  00000+0 -61373-3 0  9991
2 61605  87.8854  39.9395 0001137  86.0447 274.0810 13.10376947 80897
ONEWEB-0700             
1 61606U 24188N   26150.12043794 -.00000066  00000+0 -22516-3 0  9998
2 61606  87.8873  39.7691 0001386  99.9996 260.1288 13.10377042 80931
ONEWEB-0701             
1 61607U 24188P   26150.13705352  .00000658  00000+0  18489-2 0  9993
2 61607  87.8859  39.8585 0000992  91.9131 268.2110 13.10375881 80947
ONEWEB-0702             
1 61608U 24188Q   26150.08980941  .00000403  00000+0  11012-2 0  9990
2 61608  87.8925  24.5850 0001191 116.2802 243.8449 13.11418678 82114
ONEWEB-0704             
1 61609U 24188R   26150.12543079  .00000139  00000+0  36177-3 0  9999
2 61609  87.8869  39.8491 0001369 117.9666 242.1600 13.10377613 80925
ONEWEB-0705             
1 61610U 24188S   26149.67225689  .00000399  00000+0  11074-2 0  9999
2 61610  87.8862  39.9450 0002211 109.9888 250.1478 13.10377344 73037
ONEWEB-0706             
1 61611U 24188T   26150.11545362 -.00000385  00000+0 -11384-2 0  9995
2 61611  87.8861  39.8630 0001553 100.6292 259.5010 13.10376403 81018
ONEWEB-0707             
1 61612U 24188U   26150.12209929 -.00000019  00000+0 -89660-4 0  9991
2 61612  87.8862  39.8555 0001496  98.0540 262.0757 13.10377695 80951
ONEWEB-0708             
1 61613U 24188V   26150.14037735  .00000684  00000+0  19217-2 0  9993
2 61613  87.8854  39.8709 0002202  92.0052 268.1328 13.10375033 80935
